{"fetched_at":"2026-04-01T16:59:04Z","count":11445,"tles":[{"name":"RASSVET-3 OBJECT M","line1":"1 68371U 26061M   26090.65663523  .00066259  37632-6  22899-3 0  9991","line2":"2 68371  82.2970  99.7103 0026505  44.4421 315.8970 15.88746118  1262","category":"Other"}]}